$$SOE
2461295.500000000, A.D. 2026-Sep-12 00:00:00.0000, -3.550031832460081E+08, 1.570765682802753E+08, 2.893519571495233E+07,
2461302.500000000, A.D. 2026-Sep-19 00:00:00.0000, -3.600308086876671E+08, 1.482172484459283E+08, 2.872020840167547E+07,
2461309.500000000, A.D. 2026-Sep-26 00:00:00.0000, -3.647647588029455E+08, 1.392371401602116E+08, 2.848178260450432E+07,
2461316.500000000, A.D. 2026-Oct-03 00:00:00.0000, -3.692036026332223E+08, 1.301444930135094E+08, 2.822030316814263E+07,
2461323.500000000, A.D. 2026-Oct-10 00:00:00.0000, -3.733460532018265E+08, 1.209474720660239E+08, 2.793615833252010E+07,
2461330.500000000, A.D. 2026-Oct-17 00:00:00.0000, -3.771909609462834E+08, 1.116541619444981E+08, 2.762973958811009E+07,
2461337.500000000, A.D. 2026-Oct-24 00:00:00.0000, -3.807373076785875E+08, 1.022725709482339E+08, 2.730144155909548E+07,
2461344.500000000, A.D. 2026-Oct-31 00:00:00.0000, -3.839842009539878E+08, 9.281063508038291E+07, 2.695166189783729E+07,
2461351.500000000, A.D. 2026-Nov-07 00:00:00.0000, -3.869308684896075E+08, 8.327622206335115E+07, 2.658080116378906E+07,
2461358.500000000, A.D. 2026-Nov-14 00:00:00.0000, -3.895766524133304E+08, 7.367713621204968E+07, 2.618926273933048E+07,
2461365.500000000, A.D. 2026-Nov-21 00:00:00.0000, -3.919210051380264E+08, 6.402112483410077E+07, 2.577745300295928E+07,
2461372.500000000, A.D. 2026-Nov-28 00:00:00.0000, -3.939634878465917E+08, 5.431588313827316E+07, 2.534578160439954E+07,
2461379.500000000, A.D. 2026-Dec-05 00:00:00.0000, -3.957037679558632E+08, 4.456905698800342E+07, 2.489466145518224E+07,
2461386.500000000, A.D. 2026-Dec-12 00:00:00.0000, -3.971416153780363E+08, 3.478824660396095E+07, 2.442450867291600E+07,
2461393.500000000, A.D. 2026-Dec-19 00:00:00.0000, -3.982768994534841E+08, 2.498101121244235E+07, 2.393574265187295E+07,
2461400.500000000, A.D. 2026-Dec-26 00:00:00.0000, -3.991095866900784E+08, 1.515487376378623E+07, 2.342878620128057E+07,
2461407.500000000, A.D. 2027-Jan-02 00:00:00.0000, -3.996397390272549E+08, 5.317325525021385E+06, 2.290406570990968E+07,
2461414.500000000, A.D. 2027-Jan-09 00:00:00.0000, -3.998675125020090E+08, -4.524169437073546E+06, 2.236201132739865E+07,
2461421.500000000, A.D. 2027-Jan-16 00:00:00.0000, -3.997931562766111E+08, -1.436216987710241E+07, 2.180305715928720E+07,
2461428.500000000, A.D. 2027-Jan-23 00:00:00.0000, -3.994170119777800E+08, -2.418925313841634E+07, 2.122764146776155E+07,
2461435.500000000, A.D. 2027-Jan-30 00:00:00.0000, -3.987395131546929E+08, -3.399801111640545E+07, 2.063620685638515E+07,
2461442.500000000, A.D. 2027-Feb-06 00:00:00.0000, -3.977611844253069E+08, -4.378104608072697E+07, 2.002920042699438E+07,
2461449.500000000, A.D. 2027-Feb-13 00:00:00.0000, -3.964826407664497E+08, -5.353096514261423E+07, 1.940707405003587E+07,
2461456.500000000, A.D. 2027-Feb-20 00:00:00.0000, -3.949045893115732E+08, -6.324037416690900E+07, 1.877028490001890E+07,
2461463.500000000, A.D. 2027-Feb-27 00:00:00.0000, -3.930278322678698E+08, -7.290187435052949E+07, 1.811929586525548E+07,
2461470.500000000, A.D. 2027-Mar-06 00:00:00.0000, -3.908532679441982E+08, -8.250805954793957E+07, 1.745457571234401E+07,
2461477.500000000, A.D. 2027-Mar-13 00:00:00.0000, -3.883818914949074E+08, -9.205151229487467E+07, 1.677659931966177E+07,
2461484.500000000, A.D. 2027-Mar-20 00:00:00.0000, -3.856147965123085E+08, -1.015247993679970E+08, 1.608584801491153E+07,
2461491.500000000, A.D. 2027-Mar-27 00:00:00.0000, -3.825531772716124E+08, -1.109204674340775E+08, 1.538280995297749E+07,
2461498.500000000, A.D. 2027-Apr-03 00:00:00.0000, -3.791983314323846E+08, -1.202310388407544E+08, 1.466798051137230E+07,
2461505.500000000, A.D. 2027-Apr-10 00:00:00.0000, -3.755516631416221E+08, -1.294490075304817E+08, 1.394186269939331E+07,
2461512.500000000, A.D. 2027-Apr-17 00:00:00.0000, -3.716146865226491E+08, -1.385668350983839E+08, 1.320496757765525E+07,
2461519.500000000, A.D. 2027-Apr-24 00:00:00.0000, -3.673890294781092E+08, -1.475769470648582E+08, 1.245781467560321E+07,
2461526.500000000, A.D. 2027-May-01 00:00:00.0000, -3.628764375170665E+08, -1.564717293459059E+08, 1.170093238191704E+07,
2461533.500000000, A.D. 2027-May-08 00:00:00.0000, -3.580787773107959E+08, -1.652435241850886E+08, 1.093485834105542E+07,
2461540.500000000, A.D. 2027-May-15 00:00:00.0000, -3.529980414878452E+08, -1.738846246071538E+08, 1.016014007144760E+07,
2461547.500000000, A.D. 2027-May-22 00:00:00.0000, -3.476363562483011E+08, -1.823872700005286E+08, 9.377335737131886E+06,
2461554.500000000, A.D. 2027-May-29 00:00:00.0000, -3.419959884612240E+08, -1.907436443141595E+08, 8.587014645232990E+06,
2461561.500000000, A.D. 2027-Jun-05 00:00:00.0000, -3.360793513808538E+08, -1.989458737532242E+08, 7.789757644366197E+06,
2461568.500000000, A.D. 2027-Jun-12 00:00:00.0000, -3.298890110067647E+08, -2.069860235585549E+08, 6.986157643545210E+06,
2461575.500000000, A.D. 2027-Jun-19 00:00:00.0000, -3.234276934357344E+08, -2.148560948253565E+08, 6.176820205393508E+06,
2461582.500000000, A.D. 2027-Jun-26 00:00:00.0000, -3.166982929448423E+08, -2.225480216479794E+08, 5.362364166344821E+06,
2461589.500000000, A.D. 2027-Jul-03 00:00:00.0000, -3.097038806953017E+08, -2.300536686111013E+08, 4.543422272104532E+06,
2461596.500000000, A.D. 2027-Jul-10 00:00:00.0000, -3.024477140427960E+08, -2.373648286495595E+08, 3.720641825449169E+06,
2461603.500000000, A.D. 2027-Jul-17 00:00:00.0000, -2.949332464405276E+08, -2.444732213497694E+08, 2.894685339476183E+06,
2461610.500000000, A.D. 2027-Jul-24 00:00:00.0000, -2.871641378011818E+08, -2.513704917936555E+08, 2.066231176223516E+06,
2461617.500000000, A.D. 2027-Jul-31 00:00:00.0000, -2.791442649292822E+08, -2.580482097520824E+08, 1.235974151326954E+06,
2461624.500000000, A.D. 2027-Aug-07 00:00:00.0000, -2.708777322473001E+08, -2.644978681228735E+08, 4.046262161093801E+05,
2461631.500000000, A.D. 2027-Aug-14 00:00:00.0000, -2.623688851380388E+08, -2.707108809185266E+08, -4.270825941254497E+05,
2461638.500000000, A.D. 2027-Aug-21 00:00:00.0000, -2.536223253062319E+08, -2.766785842271426E+08, -1.258403279390872E+06,
2461645.500000000, A.D. 2027-Aug-28 00:00:00.0000, -2.446429247510448E+08, -2.823922390103690E+08, -2.088567280803382E+06,
2461652.500000000, A.D. 2027-Sep-04 00:00:00.0000, -2.354358395524879E+08, -2.878430333078989E+08, -2.916785862897709E+06,
2461659.500000000, A.D. 2027-Sep-11 00:00:00.0000, -2.260065248853391E+08, -2.930220845869529E+08, -3.742249401976168E+06,
2461666.500000000, A.D. 2027-Sep-18 00:00:00.0000, -2.163607511417343E+08, -2.979204429717280E+08, -4.564126650074959E+06,
2461673.500000000, A.D. 2027-Sep-25 00:00:00.0000, -2.065046209445430E+08, -3.025290955250510E+08, -5.381564007033333E+06,
2461680.500000000, A.D. 2027-Oct-02 00:00:00.0000, -1.964445869851768E+08, -3.068389716592098E+08, -6.193684811220929E+06,
2461687.500000000, A.D. 2027-Oct-09 00:00:00.0000, -1.861874706687396E+08, -3.108409497924536E+08, -6.999588657812119E+06,
2461694.500000000, A.D. 2027-Oct-16 00:00:00.0000, -1.757404815014280E+08, -3.145258654235774E+08, -7.798350761859760E+06,
2461701.500000000, A.D. 2027-Oct-23 00:00:00.0000, -1.651112369466219E+08, -3.178845207548022E+08, -8.589021398189500E+06,
2461708.500000000, A.D. 2027-Oct-30 00:00:00.0000, -1.543077823472322E+08, -3.209076953886158E+08, -9.370625411504030E+06,
2461715.500000000, A.D. 2027-Nov-06 00:00:00.0000, -1.433386120369792E+08, -3.235861571220458E+08, -1.014216160835515E+07,
2461722.500000000, A.D. 2027-Nov-13 00:00:00.0000, -1.322126935741594E+08, -3.259106750825400E+08, -1.090260203107218E+07,
2461729.500000000, A.D. 2027-Nov-20 00:00:00.0000, -1.209394921337499E+08, -3.278720375744138E+08, -1.165089157272625E+07,
2461736.500000000, A.D. 2027-Nov-27 00:00:00.0000, -1.095289933647222E+08, -3.294610718647164E+08, -1.238594785478161E+07,
2461743.500000000, A.D. 2027-Dec-04 00:00:00.0000, -9.799172663963276E+07, -3.306686651931183E+08, -1.310666112392823E+07,
2461750.500000000, A.D. 2027-Dec-11 00:00:00.0000, -8.633878912390451E+07, -3.314857881742922E+08, -1.381189421479098E+07,
2461757.500000000, A.D. 2027-Dec-18 00:00:00.0000, -7.458187023718649E+07, -3.319035211435066E+08, -1.450048265182833E+07,
2461764.500000000, A.D. 2027-Dec-25 00:00:00.0000, -6.273327616929968E+07, -3.319130836658572E+08, -1.517123492720716E+07,
2461771.500000000, A.D. 2028-Jan-01 00:00:00.0000, -5.080595418765800E+07, -3.315058674193902E+08, -1.582293298243068E+07,
$$EOE